{
  "type": "FeatureCollection",
  "features": [
    {
      "type": "Feature",
      "properties": {
        "norad_id": 38121,
        "name": "FENGYUN 1C DEB",
        "group": "fengyun-1c-debris",
        "lat": 77.74363768784112,
        "lon": 11.281486213660484,
        "alt_km": 667.8432428569022,
        "timestamp": "2025-12-17T23:38:07.143564+00:00",
        "meta_object_name": "FENGYUN 1C DEB",
        "meta_object_id": "1999-025EPS",
        "meta_epoch": "2025-12-13T04:20:01.430304",
        "meta_mean_motion": 14.21784212,
        "meta_eccentricity": 0.02064826,
        "meta_inclination": 99.1148,
        "meta_ra_of_asc_node": 138.6695,
        "meta_arg_of_pericenter": 126.4735,
        "meta_mean_anomaly": 235.5664,
        "meta_ephemeris_type": 0,
        "meta_classification_type": "U",
        "meta_norad_cat_id": 38121,
        "meta_element_set_no": 999,
        "meta_rev_at_epoch": 83926,
        "meta_bstar": 0.0016630973,
        "meta_mean_motion_dot": 4.5e-05,
        "meta_mean_motion_ddot": 0,
        "tle_line1": "1 38121U 99025EPS 25347.18057211  .00004500  00000+0  16631-2 0  9993",
        "tle_line2": "2 38121  99.1148 138.6695 0206482 126.4735 235.5664 14.21784212839268"
      },
      "geometry": {
        "type": "Point",
        "coordinates": [
          11.281486213660484,
          77.74363768784112
        ]
      }
    },
    {
      "type": "Feature",
      "properties": {
        "norad_id": 38122,
        "name": "FENGYUN 1C DEB",
        "group": "fengyun-1c-debris",
        "lat": 63.27516816087253,
        "lon": -22.596263657620568,
        "alt_km": 702.0833584866714,
        "timestamp": "2025-12-17T23:38:07.143574+00:00",
        "meta_object_name": "FENGYUN 1C DEB",
        "meta_object_id": "1999-025EPT",
        "meta_epoch": "2025-12-17T06:41:14.723232",
        "meta_mean_motion": 14.42662555,
        "meta_eccentricity": 0.02278663,
        "meta_inclination": 98.3178,
        "meta_ra_of_asc_node": 353.606,
        "meta_arg_of_pericenter": 143.1818,
        "meta_mean_anomaly": 218.5268,
        "meta_ephemeris_type": 0,
        "meta_classification_type": "U",
        "meta_norad_cat_id": 38122,
        "meta_element_set_no": 999,
        "meta_rev_at_epoch": 67804,
        "meta_bstar": 0.00027565513,
        "meta_mean_motion_dot": 1.203e-05,
        "meta_mean_motion_ddot": 0,
        "tle_line1": "1 38122U 99025EPT 25351.27864263  .00001203  00000+0  27566-3 0  9999",
        "tle_line2": "2 38122  98.3178 353.6060 0227866 143.1818 218.5268 14.42662555678041"
      },
      "geometry": {
        "type": "Point",
        "coordinates": [
          -22.596263657620568,
          63.27516816087253
        ]
      }
    },
    {
      "type": "Feature",
      "properties": {
        "norad_id": 38124,
        "name": "FENGYUN 1C DEB",
        "group": "fengyun-1c-debris",
        "lat": -56.49918062506272,
        "lon": 111.41855859879709,
        "alt_km": 954.9015925750246,
        "timestamp": "2025-12-17T23:38:07.143585+00:00",
        "meta_object_name": "FENGYUN 1C DEB",
        "meta_object_id": "1999-025EPV",
        "meta_epoch": "2025-12-13T03:48:53.053632",
        "meta_mean_motion": 13.40935403,
        "meta_eccentricity": 0.03557245,
        "meta_inclination": 97.8087,
        "meta_ra_of_asc_node": 299.6458,
        "meta_arg_of_pericenter": 305.0279,
        "meta_mean_anomaly": 51.7953,
        "meta_ephemeris_type": 0,
        "meta_classification_type": "U",
        "meta_norad_cat_id": 38124,
        "meta_element_set_no": 999,
        "meta_rev_at_epoch": 54587,
        "meta_bstar": 0.00060323956,
        "meta_mean_motion_dot": 4.51e-06,
        "meta_mean_motion_ddot": 0,
        "tle_line1": "1 38124U 99025EPV 25347.15894738  .00000451  00000+0  60324-3 0  9996",
        "tle_line2": "2 38124  97.8087 299.6458 0355724 305.0279  51.7953 13.40935403545875"
      },
      "geometry": {
        "type": "Point",
        "coordinates": [
          111.41855859879709,
          -56.49918062506272
        ]
      }
    },
    {
      "type": "Feature",
      "properties": {
        "norad_id": 38130,
        "name": "FENGYUN 1C DEB",
        "group": "fengyun-1c-debris",
        "lat": -81.24600081155181,
        "lon": 143.73066466280792,
        "alt_km": 896.5940075222043,
        "timestamp": "2025-12-17T23:38:07.143595+00:00",
        "meta_object_name": "FENGYUN 1C DEB",
        "meta_object_id": "1999-025EQB",
        "meta_epoch": "2025-11-28T09:19:02.490528",
        "meta_mean_motion": 13.7720595,
        "meta_eccentricity": 0.02085156,
        "meta_inclination": 98.6035,
        "meta_ra_of_asc_node": 25.4413,
        "meta_arg_of_pericenter": 263.5047,
        "meta_mean_anomaly": 94.2329,
        "meta_ephemeris_type": 0,
        "meta_classification_type": "U",
        "meta_norad_cat_id": 38130,
        "meta_element_set_no": 999,
        "meta_rev_at_epoch": 69085,
        "meta_bstar": 0.0016964005,
        "meta_mean_motion_dot": 1.933e-05,
        "meta_mean_motion_ddot": 0,
        "tle_line1": "1 38130U 99025EQB 25332.38822327  .00001933  00000+0  16964-2 0  9993",
        "tle_line2": "2 38130  98.6035  25.4413 0208515 263.5047  94.2329 13.77205950690851"
      },
      "geometry": {
        "type": "Point",
        "coordinates": [
          143.73066466280792,
          -81.24600081155181
        ]
      }
    },
    {
      "type": "Feature",
      "properties": {
        "norad_id": 38135,
        "name": "FENGYUN 1C DEB",
        "group": "fengyun-1c-debris",
        "lat": 71.47272020225174,
        "lon": -104.24235926438712,
        "alt_km": 696.0605679615583,
        "timestamp": "2025-12-17T23:38:07.143605+00:00",
        "meta_object_name": "FENGYUN 1C DEB",
        "meta_object_id": "1999-025EQG",
        "meta_epoch": "2025-12-04T09:59:10.811040",
        "meta_mean_motion": 14.2524882,
        "meta_eccentricity": 0.0223375,
        "meta_inclination": 98.6606,
        "meta_ra_of_asc_node": 35.2993,
        "meta_arg_of_pericenter": 95.5388,
        "meta_mean_anomaly": 267.1312,
        "meta_ephemeris_type": 0,
        "meta_classification_type": "U",
        "meta_norad_cat_id": 38135,
        "meta_element_set_no": 999,
        "meta_rev_at_epoch": 60922,
        "meta_bstar": 0.00083169,
        "meta_mean_motion_dot": 2.494e-05,
        "meta_mean_motion_ddot": 0,
        "tle_line1": "1 38135U 99025EQG 25338.41609735  .00002494  00000+0  83169-3 0  9999",
        "tle_line2": "2 38135  98.6606  35.2993 0223375  95.5388 267.1312 14.25248820609225"
      },
      "geometry": {
        "type": "Point",
        "coordinates": [
          -104.24235926438712,
          71.47272020225174
        ]
      }
    },
    {
      "type": "Feature",
      "properties": {
        "norad_id": 38137,
        "name": "FENGYUN 1C DEB",
        "group": "fengyun-1c-debris",
        "lat": 80.96651999257762,
        "lon": -44.38781206531593,
        "alt_km": 836.9270892076283,
        "timestamp": "2025-12-17T23:38:07.143615+00:00",
        "meta_object_name": "FENGYUN 1C DEB",
        "meta_object_id": "1999-025EQJ",
        "meta_epoch": "2025-12-11T22:03:53.453088",
        "meta_mean_motion": 14.06158007,
        "meta_eccentricity": 0.0046494,
        "meta_inclination": 98.8649,
        "meta_ra_of_asc_node": 28.6821,
        "meta_arg_of_pericenter": 71.683,
        "meta_mean_anomaly": 288.9388,
        "meta_ephemeris_type": 0,
        "meta_classification_type": "U",
        "meta_norad_cat_id": 38137,
        "meta_element_set_no": 999,
        "meta_rev_at_epoch": 63697,
        "meta_bstar": 0.00049172,
        "meta_mean_motion_dot": 7.73e-06,
        "meta_mean_motion_ddot": 0,
        "tle_line1": "1 38137U 99025EQJ 25345.91936867  .00000773  00000+0  49172-3 0  9997",
        "tle_line2": "2 38137  98.8649  28.6821 0046494  71.6830 288.9388 14.06158007636976"
      },
      "geometry": {
        "type": "Point",
        "coordinates": [
          -44.38781206531593,
          80.96651999257762
        ]
      }
    },
    {
      "type": "Feature",
      "properties": {
        "norad_id": 38143,
        "name": "FENGYUN 1C DEB",
        "group": "fengyun-1c-debris",
        "lat": -11.69919923809803,
        "lon": -134.01436581138086,
        "alt_km": 841.5132342438674,
        "timestamp": "2025-12-17T23:38:07.143626+00:00",
        "meta_object_name": "FENGYUN 1C DEB",
        "meta_object_id": "1999-025EQQ",
        "meta_epoch": "2025-12-17T09:02:58.047936",
        "meta_mean_motion": 14.0490641,
        "meta_eccentricity": 0.00563343,
        "meta_inclination": 99.0304,
        "meta_ra_of_asc_node": 47.2681,
        "meta_arg_of_pericenter": 207.7954,
        "meta_mean_anomaly": 152.0199,
        "meta_ephemeris_type": 0,
        "meta_classification_type": "U",
        "meta_norad_cat_id": 38143,
        "meta_element_set_no": 999,
        "meta_rev_at_epoch": 60348,
        "meta_bstar": 0.00075665918,
        "meta_mean_motion_dot": 1.189e-05,
        "meta_mean_motion_ddot": 0,
        "tle_line1": "1 38143U 99025EQQ 25351.37706074  .00001189  00000+0  75666-3 0  9995",
        "tle_line2": "2 38143  99.0304  47.2681 0056334 207.7954 152.0199 14.04906410603486"
      },
      "geometry": {
        "type": "Point",
        "coordinates": [
          -134.01436581138086,
          -11.69919923809803
        ]
      }
    }
  ]
}